IRIDIUM 155             
1 43573U 18061E   24364.61446818  .00000841  00000+0  29319-3 0  9994
2 43573  86.3964 280.0534 0001769  85.0680 275.0717 14.34222344336732
IRIDIUM 154             
1 43574U 18061F   24364.66521238  .00000021  00000+0  58947-6 0  9992
2 43574  86.3968 280.1392 0002193  82.3878 277.7567 14.34215666336798
IRIDIUM 163             
1 43575U 18061G   24364.92526018  .00000131  00000+0  39742-4 0  9995
2 43575  86.3963 279.9628 0002016  80.9553 279.1871 14.34217291336802
IRIDIUM 156             
1 43576U 18061H   24364.89988674  .00000137  00000+0  41978-4 0  9992
2 43576  86.3964 279.9801 0001783  89.0392 271.1008 14.34215471336798
IRIDIUM 164             
1 43577U 18061J   24364.74132153  .00000795  00000+0  27680-3 0  9993
2 43577  86.3964 280.0783 0002296  87.3428 272.8031 14.34218240336816
IRIDIUM 159             
1 43578U 18061K   24364.63984101  .00000456  00000+0  15582-3 0  9992
2 43578  86.3965 280.0685 0002262  83.7601 276.3852 14.34216093336763
IRIDIUM 180             
1 43922U 19002A   24364.84864471 -.00000106  00000+0 -44907-4 0  9999
2 43922  86.3980 216.8615 0001850  85.4190 274.7217 14.34217080312406
IRIDIUM 176             
1 43923U 19002B   24364.86485348  .00002727  00000+0  42849-3 0  9995
2 43923  86.6101 216.8607 0002827  67.9692 292.1825 14.72253256320633
IRIDIUM 168             
1 43924U 19002C   24364.84228890  .00000700  00000+0  24282-3 0  9991
2 43924  86.3982 216.9262 0002131  85.1271 275.0168 14.34210099312388
IRIDIUM 173             
1 43925U 19002D   24364.82961438  .00000060  00000+0  14377-4 0  9996
2 43925  86.3976 216.8426 0001929  85.4604 274.6812 14.34216549312365
IRIDIUM 169             
1 43926U 19002E   24364.92480855  .00000921  00000+0  29455-3 0  9995
2 43926  86.4223 248.4128 0000995  29.4454 330.6800 14.38609841313417
IRIDIUM 172             
1 43927U 19002F   24364.89304115  .00000635  00000+0  21979-3 0  9991
2 43927  86.3975 216.8224 0002055  84.7724 275.3706 14.34217378312381
IRIDIUM 175             
1 43928U 19002G   24364.85953014  .00001096  00000+0  16984-3 0  9998
2 43928  86.1524 179.0081 0001175 134.3887 225.7426 14.72256580320629
IRIDIUM 171             
1 43929U 19002H   24364.87401531 -.00000059  00000+0 -28140-4 0  9991
2 43929  86.3988 217.0772 0001962  98.5377 261.6041 14.34217165312374
IRIDIUM 170             
1 43930U 19002J   24364.87103840  .00002617  00000+0  41115-3 0  9991
2 43930  86.6101 216.8640 0002391  79.7552 280.3935 14.72242747320645
IRIDIUM 167             
1 43931U 19002K   24364.58858894  .00000423  00000+0  14395-3 0  9999
2 43931  86.3975 216.9671 0001730  97.1630 262.9762 14.34222629312330
IRIDIUM 181             
1 56726U 23068S   24364.71841454  .00001146  00000+0  33274-3 0  9991
2 56726  86.6868 279.6119 0002407  93.4170 266.7307 14.43573614 85341
IRIDIUM 177             
1 56727U 23068T   24364.59389147  .00000220  00000+0  25458-4 0  9992
2 56727  86.1976 222.5662 0001685  83.9469 276.1944 14.80217797 87284
IRIDIUM 174             
1 56728U 23068U   24364.72364916  .00003446  00000+0  44999-3 0  9998
2 56728  86.1981 222.6238 0002329  86.5898 273.5589 14.80227442 87309
IRIDIUM 178             
1 56729U 23068V   24364.04221708  .00000496  00000+0  61782-4 0  9997
2 56729  86.5775 249.6287 0002505  88.8875 271.2633 14.80218905 87202
IRIDIUM 179             
1 56730U 23068W   24364.44239347  .00003458  00000+0  45157-3 0  9999
2 56730  86.6783 256.0505 0002381  81.1708 278.9783 14.80236016 87261
